SWARM B                 
1 39451U 13067A   26201.32345600  .00002080  00000+0  73222-4 0  9992
2 39451  87.7465 332.2514 0002202  87.2461 272.9040 15.28737380688308
SWARM A                 
1 39452U 13067B   26201.24852063  .00006007  00000+0  10090-3 0  9996
2 39452  87.3301  43.9456 0003324  91.8846 268.2796 15.51517495711378
SWARM C                 
1 39453U 13067C   26201.24842956  .00006022  00000+0  10115-3 0  9992
2 39453  87.3301  42.5263 0003313  91.5087 268.6554 15.51516875711335
BRITE-CA1 (TORONTO)     
1 40020U 14033L   26201.19433953  .00000588  00000+0  95700-4 0  9990
2 40020  97.9777 329.5212 0078858 170.2786 189.9970 14.72728582647078
OCO 2                   
1 40059U 14035A   26201.25392269  .00000189  00000+0  51876-4 0  9998
2 40059  98.2020 142.0451 0001414  80.7797 279.3561 14.57134489640869
BRITE-PL2 (HEWELIUSZ)   
1 40119U 14049B   26201.24392014  .00000930  00000+0  91100-4 0  9995
2 40119  97.9121 313.5052 0013838   5.7697 354.3679 14.94694704646384
MMS 1                   
1 40482U 15011A   26201.33335648 -.00001286  00000+0  00000+0 0  9998
2 40482  72.4993 348.4093 8300367 168.1469  79.7378  0.28337029  1373
MMS 2                   
1 40483U 15011B   26201.33335648 -.00001287  00000+0  00000+0 0  9990
2 40483  72.5032 348.4083 8303183 168.1496  79.7244  0.28336980  1374
MMS 3                   
1 40484U 15011C   26201.33335648 -.00001286  00000+0  00000+0 0  9990
2 40484  72.5025 348.4204 8301479 168.1596  79.6906  0.28335480  1344
MMS 4                   
1 40485U 15011D   26201.33335648 -.00001286  00000+0  00000+0 0  9991
2 40485  72.4985 348.4036 8301504 168.1673  79.6942  0.28337001  1371
ASTROSAT                
1 40930U 15052A   26201.18943262  .00001138  00000+0  56887-4 0  9995
2 40930   5.9969 277.8067 0007651 149.6948 210.3622 14.82556632584738
DAMPE                   
1 41173U 15078A   26201.30907209  .00000600  00000+0  22717-4 0  9996
2 41173  97.4568 206.9416 0011029 326.4624  33.5917 15.30860781589611
PISAT                   
1 41784U 16059B   26200.97512851  .00000455  00000+0  85038-4 0  9994
2 41784  97.8193 200.0217 0030553 100.2509 260.2145 14.69034443524557
HXMT (HUIYAN)           
1 42758U 17034A   26201.28418764  .00002533  00000+0  12993-3 0  9991
2 42758  43.0153 358.7134 0031618 352.7666   7.2723 15.18714173502690
FLYING LAPTOP           
1 42831U 17042G   26201.31208700  .00001686  00000+0  13499-3 0  9993
2 42831  97.4838 355.6037 0019405  16.2651 343.9193 15.01331962491421
ZHANGHENG 1-01 (CSES-1) 
1 43194U 18015C   26201.29972148  .00003909  00000+0  18083-3 0  9992
2 43194  97.6902   7.6201 0016788 147.9587 212.2672 15.20647301469676
SALSAT                  
1 46495U 20068K   26200.97640307  .00004107  00000+0  14329-3 0  9993
2 46495  97.8865 206.0496 0009725 176.0322 184.0997 15.30211220320374
IXPE                    
1 49954U 21121A   26201.33335648  .00006552  00000+0  33158-3 0  9994
2 49954   0.2317  66.4849 0007327 223.7606 101.7032 15.10515719  5743
SMILE                   
1 69123U 26109A   26194.95939329  .00000936  00000+0  00000+0 0  9996
2 69123  70.0512 206.6048 8313707 286.9544   0.1879  0.47500629    65
