OBJECT_NAME,OBJECT_ID,EPOCH,MEAN_MOTION,ECCENTRICITY,INCLINATION,RA_OF_ASC_NODE,ARG_OF_PERICENTER,MEAN_ANOMALY,EPHEMERIS_TYPE,CLASSIFICATION_TYPE,NORAD_CAT_ID,ELEMENT_SET_NO,REV_AT_EPOCH,BSTAR,MEAN_MOTION_DOT,MEAN_MOTION_DDOT
SWARM B,2013-067A,2026-07-20T07:45:46.598400,15.28737380,.00022027,87.7465,332.2514,87.2461,272.9040,0,U,39451,999,68830,.73222121E-4,.208E-4,0
SWARM A,2013-067B,2026-07-20T05:57:52.182432,15.51517495,.00033246,87.3301,43.9456,91.8846,268.2796,0,U,39452,999,71137,.10089716E-3,.6007E-4,0
SWARM C,2013-067C,2026-07-20T05:57:44.313984,15.51516875,.00033131,87.3301,42.5263,91.5087,268.6554,0,U,39453,999,71133,.10115491E-3,.6022E-4,0
BRITE-CA1 (TORONTO),2014-033L,2026-07-20T04:39:50.935392,14.72728582,.00788587,97.9777,329.5212,170.2786,189.9970,0,U,40020,999,64707,.95700116E-4,.588E-5,0
OCO 2,2014-035A,2026-07-20T06:05:38.920416,14.57134489,.00014149,98.2020,142.0451,80.7797,279.3561,0,U,40059,999,64086,.51876474E-4,.189E-5,0
BRITE-PL2 (HEWELIUSZ),2014-049B,2026-07-20T05:51:14.700096,14.94694704,.00138385,97.9121,313.5052,5.7697,354.3679,0,U,40119,999,64638,.91100112E-4,.93E-5,0
MMS 1,2015-011A,2026-07-20T08:00:01.999872,0.28337029,.83003674,72.4993,348.4093,168.1469,79.7378,0,U,40482,999,137,0,-.1286E-4,0
MMS 2,2015-011B,2026-07-20T08:00:01.999872,0.28336980,.83031836,72.5032,348.4083,168.1496,79.7244,0,U,40483,999,137,0,-.1287E-4,0
MMS 3,2015-011C,2026-07-20T08:00:01.999872,0.28335480,.83014793,72.5025,348.4204,168.1596,79.6906,0,U,40484,999,134,0,-.1286E-4,0
MMS 4,2015-011D,2026-07-20T08:00:01.999872,0.28337001,.83015049,72.4985,348.4036,168.1673,79.6942,0,U,40485,999,137,0,-.1286E-4,0
ASTROSAT,2015-052A,2026-07-20T04:32:46.978368,14.82556632,.00076516,5.9969,277.8067,149.6948,210.3622,0,U,40930,999,58473,.56886569E-4,.1138E-4,0
DAMPE,2015-078A,2026-07-20T07:25:03.828576,15.30860781,.00110294,97.4568,206.9416,326.4624,33.5917,0,U,41173,999,58961,.22716716E-4,.6E-5,0
PISAT,2016-059B,2026-07-19T23:24:11.103264,14.69034443,.00305535,97.8193,200.0217,100.2509,260.2145,0,U,41784,999,52455,.85038237E-4,.455E-5,0
HXMT (HUIYAN),2017-034A,2026-07-20T06:49:13.812096,15.18714173,.0031618,43.0153,358.7134,352.7666,7.2723,0,U,42758,999,50269,.1299257E-3,.2533E-4,0
FLYING LAPTOP,2017-042G,2026-07-20T07:29:24.316800,15.01331962,.00194053,97.4838,355.6037,16.2651,343.9193,0,U,42831,999,49142,.13498766E-3,.1686E-4,0
ZHANGHENG 1-01 (CSES-1),2018-015C,2026-07-20T07:11:35.935872,15.20647301,.00167886,97.6902,7.6201,147.9587,212.2672,0,U,43194,999,46967,.18082917E-3,.3909E-4,0
SALSAT,2020-068K,2026-07-19T23:26:01.225248,15.30211220,.00097251,97.8865,206.0496,176.0322,184.0997,0,U,46495,999,32037,.14328943E-3,.4107E-4,0
IXPE,2021-121A,2026-07-20T08:00:01.999872,15.10515719,.00073279,0.2317,66.4849,223.7606,101.7032,0,U,49954,999,574,.33158337E-3,.6552E-4,0
SMILE,2026-109A,2026-07-13T23:01:31.580256,0.47500629,.83137076,70.0512,206.6048,286.9544,0.1879,0,U,69123,999,6,0,.936E-5,0
